start=new Date('2022-12-14T00:00:00.000Z').valueOf();
sats=[{"FILE":"3697190","APOAPSIS":"541.479","REF_FRAME":"TEME","MEAN_MOTION_DOT":"0.00001941","DECAY_DATE":null,"INCLINATION":"53.2187","EPHEMERIS_TYPE":"0","CENTER_NAME":"EARTH","RCS_SIZE":"LARGE","TLE_LINE2":"2 52140  53.2187 336.6516 0002483  28.4328 331.6799 15.08834706 42459","PERIAPSIS":"538.044","MEAN_MOTION":"15.08834706","MEAN_MOTION_DDOT":"0.0000000000000","MEAN_ANOMALY":"331.6799","CLASSIFICATION_TYPE":"U","OBJECT_TYPE":"PAYLOAD","ELEMENT_SET_NO":"999","LAUNCH_DATE":"2022-03-19","MEAN_ELEMENT_THEORY":"SGP4","BSTAR":"0.00014005000000","REV_AT_EPOCH":"4245","COUNTRY_CODE":"US","ARG_OF_PERICENTER":"28.4328","TIME_SYSTEM":"UTC","OBJECT_ID":"2022-029BE","NORAD_CAT_ID":"52140","GP_ID":"220278293","SITE":"AFETR","PERIOD":"95.438","RA_OF_ASC_NODE":"336.6516","TLE_LINE1":"1 52140U 22029BE  22347.39655535  .00001941  00000-0  14005-3 0  9994","EPOCH":"2022-12-13T09:31:02.382240","ECCENTRICITY":"0.00024830","SEMIMAJOR_AXIS":"6917.897","OBJECT_NAME":"STARLINK-3682"},{"EPOCH":"2022-12-13T18:58:03.172800","ECCENTRICITY":"0.00028630","SEMIMAJOR_AXIS":"6917.880","OBJECT_NAME":"STARLINK-3810","PERIOD":"95.438","RA_OF_ASC_NODE":"14.8780","TLE_LINE1":"1 52261U 22041A   22347.79031450  .00001042  00000-0  83611-4 0  9992","REV_AT_EPOCH":"3593","COUNTRY_CODE":"US","ARG_OF_PERICENTER":"24.0958","TIME_SYSTEM":"UTC","OBJECT_ID":"2022-041A","NORAD_CAT_ID":"52261","GP_ID":"220323572","SITE":"AFETR","MEAN_ELEMENT_THEORY":"SGP4","BSTAR":"0.00008361100000","LAUNCH_DATE":"2022-04-21","PERIAPSIS":"537.764","MEAN_MOTION":"15.08840102","MEAN_MOTION_DDOT":"0.0000000000000","MEAN_ANOMALY":"336.0168","CLASSIFICATION_TYPE":"U","OBJECT_TYPE":"PAYLOAD","ELEMENT_SET_NO":"999","INCLINATION":"53.2191","EPHEMERIS_TYPE":"0","RCS_SIZE":"LARGE","CENTER_NAME":"EARTH","TLE_LINE2":"2 52261  53.2191  14.8780 0002863  24.0958 336.0168 15.08840102 35930","FILE":"3698003","APOAPSIS":"541.726","MEAN_MOTION_DOT":"0.00001042","REF_FRAME":"TEME","DECAY_DATE":null},{"LAUNCH_DATE":"2022-04-21","ELEMENT_SET_NO":"999","OBJECT_TYPE":"PAYLOAD","CLASSIFICATION_TYPE":"U","MEAN_ANOMALY":"330.6947","MEAN_MOTION_DDOT":"0.0000000000000","MEAN_MOTION":"15.08840264","PERIAPSIS":"537.937","TLE_LINE2":"2 52262  53.2191  14.8446 0002613  29.4192 330.6947 15.08840264 35936","EPHEMERIS_TYPE":"0","RCS_SIZE":"LARGE","CENTER_NAME":"EARTH","INCLINATION":"53.2191","REF_FRAME":"TEME","MEAN_MOTION_DOT":"0.00001283","DECAY_DATE":null,"APOAPSIS":"541.552","FILE":"3698003","OBJECT_NAME":"STARLINK-3761","SEMIMAJOR_AXIS":"6917.880","ECCENTRICITY":"0.00026130","EPOCH":"2022-12-13T19:04:44.023008","TLE_LINE1":"1 52262U 22041B   22347.79495397  .00001283  00000-0  98742-4 0  9995","RA_OF_ASC_NODE":"14.8446","PERIOD":"95.438","SITE":"AFETR","GP_ID":"220323315","NORAD_CAT_ID":"52262","ARG_OF_PERICENTER":"29.4192","TIME_SYSTEM":"UTC","OBJECT_ID":"2022-041B","REV_AT_EPOCH":"3593","COUNTRY_CODE":"US","BSTAR":"0.00009874200000","MEAN_ELEMENT_THEORY":"SGP4"},{"TLE_LINE2":"2 52263  53.2190  14.8597 0002475  31.5363 328.5777 15.08851430 35937","INCLINATION":"53.2190","CENTER_NAME":"EARTH","RCS_SIZE":"LARGE","EPHEMERIS_TYPE":"0","DECAY_DATE":null,"MEAN_MOTION_DOT":"-0.00000820","REF_FRAME":"TEME","FILE":"3698003","APOAPSIS":"541.423","LAUNCH_DATE":"2022-04-21","CLASSIFICATION_TYPE":"U","MEAN_ANOMALY":"328.5777","ELEMENT_SET_NO":"999","OBJECT_TYPE":"PAYLOAD","PERIAPSIS":"537.998","MEAN_MOTION":"15.08851430","MEAN_MOTION_DDOT":"0.0000000000000","NORAD_CAT_ID":"52263","GP_ID":"220322071","SITE":"AFETR","COUNTRY_CODE":"US","REV_AT_EPOCH":"3593","OBJECT_ID":"2022-041C","TIME_SYSTEM":"UTC","ARG_OF_PERICENTER":"31.5363","MEAN_ELEMENT_THEORY":"SGP4","BSTAR":"-0.00003339000000","SEMIMAJOR_AXIS":"6917.845","OBJECT_NAME":"STARLINK-3786","EPOCH":"2022-12-13T19:03:20.910528","ECCENTRICITY":"0.00024750","PERIOD":"95.437","RA_OF_ASC_NODE":"14.8597","TLE_LINE1":"1 52263U 22041C   22347.79399202 -.00000820  00000-0 -33390-4 0  9990"},{"EPHEMERIS_TYPE":"0","CENTER_NAME":"EARTH","RCS_SIZE":"LARGE","INCLINATION":"53.2202","TLE_LINE2":"2 52264  53.2202  14.8956 0002495  32.9733 327.1415 15.08839900 35931","APOAPSIS":"541.472","FILE":"3698003","MEAN_MOTION_DOT":"-0.00000327","REF_FRAME":"TEME","DECAY_DATE":null,"LAUNCH_DATE":"2022-04-21","MEAN_MOTION_DDOT":"0.0000000000000","MEAN_MOTION":"15.08839900","PERIAPSIS":"538.020","ELEMENT_SET_NO":"999","OBJECT_TYPE":"PAYLOAD","CLASSIFICATION_TYPE":"U","MEAN_ANOMALY":"327.1415","TIME_SYSTEM":"UTC","ARG_OF_PERICENTER":"32.9733","OBJECT_ID":"2022-041D","REV_AT_EPOCH":"3593","COUNTRY_CODE":"US","SITE":"AFETR","GP_ID":"220322821","NORAD_CAT_ID":"52264","BSTAR":"-0.00000241580000","MEAN_ELEMENT_THEORY":"SGP4","ECCENTRICITY":"0.00024950","EPOCH":"2022-12-13T18:52:45.491232","OBJECT_NAME":"STARLINK-3795","SEMIMAJOR_AXIS":"6917.881","TLE_LINE1":"1 52264U 22041D   22347.78663763 -.00000327  00000-0 -24158-5 0  9991","PERIOD":"95.438","RA_OF_ASC_NODE":"14.8956"},{"PERIAPSIS":"538.112","MEAN_MOTION":"15.08835202","MEAN_MOTION_DDOT":"0.0000000000000","MEAN_ANOMALY":"324.3019","CLASSIFICATION_TYPE":"U","ELEMENT_SET_NO":"999","OBJECT_TYPE":"PAYLOAD","LAUNCH_DATE":"2022-04-21","FILE":"3697190","APOAPSIS":"541.408","MEAN_MOTION_DOT":"0.00000732","REF_FRAME":"TEME","DECAY_DATE":null,"INCLINATION":"53.2190","EPHEMERIS_TYPE":"0","CENTER_NAME":"EARTH","RCS_SIZE":"LARGE","TLE_LINE2":"2 52265  53.2190  16.6928 0002382  35.8132 324.3019 15.08835202 35870","RA_OF_ASC_NODE":"16.6928","PERIOD":"95.438","TLE_LINE1":"1 52265U 22041E   22347.38551787  .00000732  00000-0  64091-4 0  9997","EPOCH":"2022-12-13T09:15:08.743968","ECCENTRICITY":"0.00023820","SEMIMAJOR_AXIS":"6917.895","OBJECT_NAME":"STARLINK-3740","MEAN_ELEMENT_THEORY":"SGP4","BSTAR":"0.00006409100000","REV_AT_EPOCH":"3587","COUNTRY_CODE":"US","TIME_SYSTEM":"UTC","ARG_OF_PERICENTER":"35.8132","OBJECT_ID":"2022-041E","GP_ID":"220279791","NORAD_CAT_ID":"52265","SITE":"AFETR"},{"BSTAR":"0.00009367000000","MEAN_ELEMENT_THEORY":"SGP4","SITE":"AFETR","GP_ID":"220323816","NORAD_CAT_ID":"52266","OBJECT_ID":"2022-041F","ARG_OF_PERICENTER":"36.7202","TIME_SYSTEM":"UTC","COUNTRY_CODE":"US","REV_AT_EPOCH":"3593","TLE_LINE1":"1 52266U 22041F   22347.77927728  .00001203  00000-0  93670-4 0  9992","PERIOD":"95.438","RA_OF_ASC_NODE":"14.9256","OBJECT_NAME":"STARLINK-3739","SEMIMAJOR_AXIS":"6917.882","ECCENTRICITY":"0.00020040","EPOCH":"2022-12-13T18:42:09.556992","DECAY_DATE":null,"MEAN_MOTION_DOT":"0.00001203","REF_FRAME":"TEME","APOAPSIS":"541.133","FILE":"3698003","TLE_LINE2":"2 52266  53.2190  14.9256 0002004  36.7202 323.3927 15.08839444 35931","RCS_SIZE":"LARGE","CENTER_NAME":"EARTH","EPHEMERIS_TYPE":"0","INCLINATION":"53.2190","OBJECT_TYPE":"PAYLOAD","ELEMENT_SET_NO":"999","MEAN_ANOMALY":"323.3927","CLASSIFICATION_TYPE":"U","MEAN_MOTION_DDOT":"0.0000000000000","MEAN_MOTION":"15.08839444","PERIAPSIS":"538.361","LAUNCH_DATE":"2022-04-21"},{"LAUNCH_DATE":"2022-04-21","PERIAPSIS":"538.198","MEAN_MOTION_DDOT":"0.0000000000000","MEAN_MOTION":"15.08835386","MEAN_ANOMALY":"327.9374","CLASSIFICATION_TYPE":"U","ELEMENT_SET_NO":"999","OBJECT_TYPE":"PAYLOAD","INCLINATION":"53.2188","CENTER_NAME":"EARTH","RCS_SIZE":"LARGE","EPHEMERIS_TYPE":"0","TLE_LINE2":"2 52267  53.2188  16.1265 0002257  32.1756 327.9374 15.08835386 35899","FILE":"3697190","APOAPSIS":"541.321","DECAY_DATE":null,"MEAN_MOTION_DOT":"-0.00001232","REF_FRAME":"TEME","EPOCH":"2022-12-13T12:15:19.025568","ECCENTRICITY":"0.00022570","SEMIMAJOR_AXIS":"6917.894","OBJECT_NAME":"STARLINK-3748","PERIOD":"95.438","RA_OF_ASC_NODE":"16.1265","TLE_LINE1":"1 52267U 22041G   22347.51063687 -.00001232  00000-0 -59329-4 0  9997","COUNTRY_CODE":"US","REV_AT_EPOCH":"3589","OBJECT_ID":"2022-041G","ARG_OF_PERICENTER":"32.1756","TIME_SYSTEM":"UTC","GP_ID":"220278302","NORAD_CAT_ID":"52267","SITE":"AFETR","MEAN_ELEMENT_THEORY":"SGP4","BSTAR":"-0.00005932900000"},{"LAUNCH_DATE":"2022-04-21","MEAN_MOTION":"15.08851304","MEAN_MOTION_DDOT":"0.0000000000000","PERIAPSIS":"537.986","ELEMENT_SET_NO":"999","OBJECT_TYPE":"PAYLOAD","MEAN_ANOMALY":"323.4367","CLASSIFICATION_TYPE":"U","CENTER_NAME":"EARTH","RCS_SIZE":"LARGE","EPHEMERIS_TYPE":"0","INCLINATION":"53.2171","TLE_LINE2":"2 52268  53.2171  15.8936 0002493  36.6796 323.4367 15.08851304 35901","APOAPSIS":"541.435","FILE":"3698003","DECAY_DATE":null,"REF_FRAME":"TEME","MEAN_MOTION_DOT":"0.00001429","ECCENTRICITY":"0.00024930","EPOCH":"2022-12-13T13:34:47.368128","OBJECT_NAME":"STARLINK-3746","SEMIMAJOR_AXIS":"6917.846","TLE_LINE1":"1 52268U 22041H   22347.56582602  .00001429  00000-0  10787-3 0  9996","RA_OF_ASC_NODE":"15.8936","PERIOD":"95.437","OBJECT_ID":"2022-041H","TIME_SYSTEM":"UTC","ARG_OF_PERICENTER":"36.6796","COUNTRY_CODE":"US","REV_AT_EPOCH":"3590","SITE":"AFETR","GP_ID":"220322322","NORAD_CAT_ID":"52268","BSTAR":"0.00010787000000","MEAN_ELEMENT_THEORY":"SGP4"},{"LAUNCH_DATE":"2022-04-21","PERIAPSIS":"538.041","MEAN_MOTION":"15.08834146","MEAN_MOTION_DDOT":"0.0000000000000","MEAN_ANOMALY":"331.2788","CLASSIFICATION_TYPE":"U","OBJECT_TYPE":"PAYLOAD","ELEMENT_SET_NO":"999","INCLINATION":"53.2185","EPHEMERIS_TYPE":"0","RCS_SIZE":"LARGE","CENTER_NAME":"EARTH","TLE_LINE2":"2 52269  53.2185  14.9691 0002489  28.8341 331.2788 15.08834146 35931","FILE":"3698003","APOAPSIS":"541.485","MEAN_MOTION_DOT":"0.00000483","REF_FRAME":"TEME","DECAY_DATE":null,"EPOCH":"2022-12-13T18:31:34.040928","ECCENTRICITY":"0.00024890","SEMIMAJOR_AXIS":"6917.898","OBJECT_NAME":"STARLINK-3791","PERIOD":"95.438","RA_OF_ASC_NODE":"14.9691","TLE_LINE1":"1 52269U 22041J   22347.77192177  .00000483  00000-0  48455-4 0  9997","REV_AT_EPOCH":"3593","COUNTRY_CODE":"US","TIME_SYSTEM":"UTC","ARG_OF_PERICENTER":"28.8341","OBJECT_ID":"2022-041J","GP_ID":"220323573","NORAD_CAT_ID":"52269","SITE":"AFETR","MEAN_ELEMENT_THEORY":"SGP4","BSTAR":"0.00004845500000"}];
